CALSPHERE 1             
1 00900U 64063C   22205.52950402  .00000405  00000+0  42181-3 0  9993
2 00900  90.1733  41.5881 0024856 271.1766 142.2554 13.73848537875750
CALSPHERE 2             
1 00902U 64063E   22205.58638102  .00000043  00000+0  50731-4 0  9990
2 00902  90.1861  44.6953 0019787  44.6147  17.5023 13.52718753663798
LCS 1                   
1 01361U 65034C   22205.58058697  .00000015  00000+0  91752-3 0  9990
2 01361  32.1442 317.1494 0013061   7.9090 352.1612  9.89301573 68902
TEMPSAT 1               
1 01512U 65065E   22205.54397622  .00000040  00000+0  63369-4 0  9994
2 01512  89.9115 218.3505 0068066 286.9078 192.0823 13.33452438770313
CALSPHERE 4A            
1 01520U 65065H   22205.60023304  .00000067  00000+0  11145-3 0  9996
2 01520  89.9939 130.1443 0069616 156.9191  21.1382 13.35895564772612
OPS 5712 (P/L 160)      
1 02826U 67053A   22205.49234284  .00001820  00000+0  47747-3 0  9998
2 02826  69.9260 202.1988 0008510 292.2553  67.7678 14.50759553858101
OPS 5712 (P/L 153)      
1 02874U 67053H   22205.53026738 -.00000011  00000+0  30423-4 0  9995
2 02874  69.9740 285.7275 0009850 251.7114 108.2920 13.96410869808002
SURCAL 150B             
1 02909U 67053J   22205.48644786  .00003011  00000+0  58253-3 0  9999
2 02909  69.9456 189.8325 0005941 305.7858  54.2730 14.64316080869032
RIGIDSPHERE 2 (LCS 4)   
1 05398U 71067E   22205.52778413  .00000384  00000+0  12790-3 0  9990
2 05398  87.6236  12.7560 0060866 262.8089  96.6186 14.34271628669578
COSMOS 2493 (SKRL-756 1)
1 39490U 13078A   22205.53316553  .00001205  00000+0  12373-3 0  9992
2 39490  82.4174 198.6489 0016371 339.5645  20.4916 14.89515037465214
COSMOS 2494 (SKRL-756 2)
1 39491U 13078B   22205.53916155  .00001317  00000+0  13043-3 0  9996
2 39491  82.4177 192.3436 0020255 312.9877  46.9643 14.90971560465780
